{
    "links": {
        "self": "http://www.neowsapp.com/rest/v1/neo/3601406?api_key=iIulBulltgU6a56xZRHN4H3l9WmuAYTsLGpBGhQ2"
    },
    "id": "3601406",
    "neo_reference_id": "3601406",
    "name": "(2012 EV14)",
    "designation": "2012 EV14",
    "nasa_jpl_url": "http://ssd.jpl.nasa.gov/sbdb.cgi?sstr=3601406",
    "absolute_magnitude_h": 23.0,
    "estimated_diameter": {
        "kilometers": {
            "estimated_diameter_min": 0.0667659413,
            "estimated_diameter_max": 0.1492931834
        },
        "meters": {
            "estimated_diameter_min": 66.7659413495,
            "estimated_diameter_max": 149.2931834393
        },
        "miles": {
            "estimated_diameter_min": 0.0414864197,
            "estimated_diameter_max": 0.0927664547
        },
        "feet": {
            "estimated_diameter_min": 219.0483710172,
            "estimated_diameter_max": 489.807047955
        }
    },
    "is_potentially_hazardous_asteroid": false,
    "close_approach_data": [
        {
            "close_approach_date": "2012-03-04",
            "close_approach_date_full": "2012-Mar-04 21:47",
            "epoch_date_close_approach": 1330897620000,
            "relative_velocity": {
                "kilometers_per_second": "16.8189422782",
                "kilometers_per_hour": "60548.1922014959",
                "miles_per_hour": "37622.2919820906"
            },
            "miss_distance": {
                "astronomical": "0.241513051",
                "lunar": "93.948576839",
                "kilometers": "36129838.00680137",
                "miles": "22450040.315224106"
            },
            "orbiting_body": "Earth"
        }
    ],
    "orbital_data": {
        "orbit_id": "6",
        "orbit_determination_date": "2017-04-06 08:50:29",
        "first_observation_date": "2012-03-15",
        "last_observation_date": "2012-03-24",
        "data_arc_in_days": 9,
        "observations_used": 17,
        "orbit_uncertainty": "9",
        "minimum_orbit_intersection": ".211912",
        "jupiter_tisserand_invariant": "3.900",
        "epoch_osculation": "2456004.5",
        "eccentricity": ".3961658400007985",
        "semi_major_axis": "1.737139553551042",
        "inclination": "31.53365694934775",
        "ascending_node_longitude": "174.1700216158256",
        "orbital_period": "836.2776504039615",
        "perihelion_distance": "1.048944203119881",
        "perihelion_argument": "297.5269682555373",
        "aphelion_distance": "2.425334903982202",
        "perihelion_time": "2455933.193742589922",
        "mean_anomaly": "30.69584922570649",
        "mean_motion": ".4304790398572807",
        "equinox": "J2000",
        "orbit_class": {
            "orbit_class_type": "AMO",
            "orbit_class_description": "Near-Earth asteroid orbits similar to that of 1221 Amor",
            "orbit_class_range": "1.017 AU < q (perihelion) < 1.3 AU"
        }
    },
    "is_sentry_object": false
}